start=new Date('2023-05-12T00:00:00.000Z').valueOf();
sats=[{"TIME_SYSTEM":"UTC","CENTER_NAME":"EARTH","TLE_LINE1":"1 46673U 20073D   23131.91676180  .00026751  00000-0  18068-2 0  9992","ARG_OF_PERICENTER":"54.7277","OBJECT_NAME":"STARLINK-1717","OBJECT_ID":"2020-073D","ECCENTRICITY":"0.00012830","REV_AT_EPOCH":"14125","OBJECT_TYPE":"PAYLOAD","SEMIMAJOR_AXIS":"6925.273","RA_OF_ASC_NODE":"213.0431","EPHEMERIS_TYPE":"0","INCLINATION":"53.0537","COUNTRY_CODE":"US","FILE":"3905576","GP_ID":"231633198","RCS_SIZE":"LARGE","DECAY_DATE":null,"MEAN_ANOMALY":"305.3832","MEAN_MOTION":"15.06424542","TLE_LINE2":"2 46673  53.0537 213.0431 0001283  54.7277 305.3832 15.06424542141251","REF_FRAME":"TEME","APOAPSIS":"548.027","MEAN_MOTION_DOT":"0.00026751","BSTAR":"0.00180680000000","EPOCH":"2023-05-11T22:00:08.219520","NORAD_CAT_ID":"46673","ELEMENT_SET_NO":"999","LAUNCH_DATE":"2020-10-18","PERIOD":"95.591","MEAN_ELEMENT_THEORY":"SGP4","CLASSIFICATION_TYPE":"U","MEAN_MOTION_DDOT":"0.0000000000000","PERIAPSIS":"546.250","SITE":"AFETR"},{"EPOCH":"2023-05-11T21:27:35.671104","BSTAR":"0.00089541000000","MEAN_MOTION_DOT":"0.00013088","APOAPSIS":"548.189","REF_FRAME":"TEME","TLE_LINE2":"2 46674  53.0524 198.0233 0001493  77.9407 282.1749 15.06419088141466","MEAN_MOTION":"15.06419088","CLASSIFICATION_TYPE":"U","PERIAPSIS":"546.121","SITE":"AFETR","MEAN_MOTION_DDOT":"0.0000000000000","PERIOD":"95.591","LAUNCH_DATE":"2020-10-18","MEAN_ELEMENT_THEORY":"SGP4","ELEMENT_SET_NO":"999","NORAD_CAT_ID":"46674","ARG_OF_PERICENTER":"77.9407","OBJECT_NAME":"STARLINK-1718","TLE_LINE1":"1 46674U 20073E   23131.89416286  .00013088  00000-0  89541-3 0  9993","CENTER_NAME":"EARTH","TIME_SYSTEM":"UTC","GP_ID":"231633950","FILE":"3905576","DECAY_DATE":null,"MEAN_ANOMALY":"282.1749","RCS_SIZE":"LARGE","RA_OF_ASC_NODE":"198.0233","EPHEMERIS_TYPE":"0","SEMIMAJOR_AXIS":"6925.290","OBJECT_TYPE":"PAYLOAD","COUNTRY_CODE":"US","INCLINATION":"53.0524","ECCENTRICITY":"0.00014930","OBJECT_ID":"2020-073E","REV_AT_EPOCH":"14146"},{"FILE":"3905576","GP_ID":"231634698","RCS_SIZE":"LARGE","DECAY_DATE":null,"MEAN_ANOMALY":"269.4735","OBJECT_TYPE":"PAYLOAD","EPHEMERIS_TYPE":"0","RA_OF_ASC_NODE":"198.0354","SEMIMAJOR_AXIS":"6925.203","INCLINATION":"53.0525","COUNTRY_CODE":"US","ECCENTRICITY":"0.00012780","OBJECT_ID":"2020-073F","REV_AT_EPOCH":"14146","ARG_OF_PERICENTER":"90.6401","OBJECT_NAME":"STARLINK-1720","TLE_LINE1":"1 46675U 20073F   23131.89048350  .00010954  00000-0  75219-3 0  9993","CENTER_NAME":"EARTH","TIME_SYSTEM":"UTC","CLASSIFICATION_TYPE":"U","MEAN_MOTION_DDOT":"0.0000000000000","PERIAPSIS":"546.183","SITE":"AFETR","PERIOD":"95.589","LAUNCH_DATE":"2020-10-18","MEAN_ELEMENT_THEORY":"SGP4","ELEMENT_SET_NO":"999","NORAD_CAT_ID":"46675","EPOCH":"2023-05-11T21:22:17.774400","MEAN_MOTION_DOT":"0.00010954","BSTAR":"0.00075219000000","REF_FRAME":"TEME","APOAPSIS":"547.953","TLE_LINE2":"2 46675  53.0525 198.0354 0001278  90.6401 269.4735 15.06447597141468","MEAN_MOTION":"15.06447597"},{"OBJECT_TYPE":"PAYLOAD","RA_OF_ASC_NODE":"198.0495","EPHEMERIS_TYPE":"0","SEMIMAJOR_AXIS":"6925.292","INCLINATION":"53.0509","COUNTRY_CODE":"US","FILE":"3905576","GP_ID":"231633448","RCS_SIZE":"LARGE","DECAY_DATE":null,"MEAN_ANOMALY":"275.2803","ECCENTRICITY":"0.00012620","OBJECT_ID":"2020-073H","REV_AT_EPOCH":"14146","TLE_LINE1":"1 46677U 20073H   23131.88680308  .00012096  00000-0  82913-3 0  9997","ARG_OF_PERICENTER":"84.8330","OBJECT_NAME":"STARLINK-1766","TIME_SYSTEM":"UTC","CENTER_NAME":"EARTH","LAUNCH_DATE":"2020-10-18","PERIOD":"95.591","MEAN_ELEMENT_THEORY":"SGP4","CLASSIFICATION_TYPE":"U","MEAN_MOTION_DDOT":"0.0000000000000","PERIAPSIS":"546.283","SITE":"AFETR","NORAD_CAT_ID":"46677","ELEMENT_SET_NO":"999","MEAN_MOTION_DOT":"0.00012096","BSTAR":"0.00082913000000","EPOCH":"2023-05-11T21:16:59.786112","TLE_LINE2":"2 46677  53.0509 198.0495 0001262  84.8330 275.2803 15.06418304141462","MEAN_MOTION":"15.06418304","REF_FRAME":"TEME","APOAPSIS":"548.031"},{"NORAD_CAT_ID":"46679","ELEMENT_SET_NO":"999","LAUNCH_DATE":"2020-10-18","PERIOD":"95.591","MEAN_ELEMENT_THEORY":"SGP4","CLASSIFICATION_TYPE":"U","SITE":"AFETR","PERIAPSIS":"546.052","MEAN_MOTION_DDOT":"0.0000000000000","TLE_LINE2":"2 46679  53.0528 178.3299 0001629 126.8940 233.2199 15.06410963141734","MEAN_MOTION":"15.06410963","REF_FRAME":"TEME","APOAPSIS":"548.308","BSTAR":"0.00049777000000","MEAN_MOTION_DOT":"0.00007143","EPOCH":"2023-05-11T19:49:24.703104","ECCENTRICITY":"0.00016290","OBJECT_ID":"2020-073K","REV_AT_EPOCH":"14173","SEMIMAJOR_AXIS":"6925.315","RA_OF_ASC_NODE":"178.3299","EPHEMERIS_TYPE":"0","OBJECT_TYPE":"PAYLOAD","COUNTRY_CODE":"US","INCLINATION":"53.0528","GP_ID":"231633698","FILE":"3905576","MEAN_ANOMALY":"233.2199","DECAY_DATE":null,"RCS_SIZE":"LARGE","TIME_SYSTEM":"UTC","CENTER_NAME":"EARTH","TLE_LINE1":"1 46679U 20073K   23131.82598036  .00007143  00000-0  49777-3 0  9997","ARG_OF_PERICENTER":"126.8940","OBJECT_NAME":"STARLINK-1773"},{"OBJECT_NAME":"STARLINK-1774","ARG_OF_PERICENTER":"67.2292","TLE_LINE1":"1 46680U 20073L   23131.49655321  .00028850  00000-0  19462-2 0  9998","CENTER_NAME":"EARTH","TIME_SYSTEM":"UTC","DECAY_DATE":null,"MEAN_ANOMALY":"292.8852","RCS_SIZE":"LARGE","GP_ID":"231634449","FILE":"3905576","COUNTRY_CODE":"US","INCLINATION":"53.0527","EPHEMERIS_TYPE":"0","RA_OF_ASC_NODE":"214.8014","SEMIMAJOR_AXIS":"6925.255","OBJECT_TYPE":"PAYLOAD","REV_AT_EPOCH":"14119","OBJECT_ID":"2020-073L","ECCENTRICITY":"0.00014640","EPOCH":"2023-05-11T11:55:02.197344","BSTAR":"0.00194620000000","MEAN_MOTION_DOT":"0.00028850","APOAPSIS":"548.134","REF_FRAME":"TEME","TLE_LINE2":"2 46680  53.0527 214.8014 0001464  67.2292 292.8852 15.06430465141197","MEAN_MOTION":"15.06430465","SITE":"AFETR","PERIAPSIS":"546.106","MEAN_MOTION_DDOT":"0.0000000000000","CLASSIFICATION_TYPE":"U","MEAN_ELEMENT_THEORY":"SGP4","PERIOD":"95.590","LAUNCH_DATE":"2020-10-18","ELEMENT_SET_NO":"999","NORAD_CAT_ID":"46680"},{"CENTER_NAME":"EARTH","TIME_SYSTEM":"UTC","ARG_OF_PERICENTER":"67.0366","OBJECT_NAME":"STARLINK-1775","TLE_LINE1":"1 46681U 20073M   23131.93148520  .00013942  00000-0  95253-3 0  9995","OBJECT_ID":"2020-073M","ECCENTRICITY":"0.00012990","REV_AT_EPOCH":"14125","GP_ID":"231634201","FILE":"3905576","DECAY_DATE":null,"MEAN_ANOMALY":"293.0760","RCS_SIZE":"LARGE","RA_OF_ASC_NODE":"212.8450","EPHEMERIS_TYPE":"0","SEMIMAJOR_AXIS":"6925.293","OBJECT_TYPE":"PAYLOAD","COUNTRY_CODE":"US","INCLINATION":"53.0529","REF_FRAME":"TEME","APOAPSIS":"548.057","TLE_LINE2":"2 46681  53.0529 212.8450 0001299  67.0366 293.0760 15.06418248141251","MEAN_MOTION":"15.06418248","EPOCH":"2023-05-11T22:21:20.321280","BSTAR":"0.00095253000000","MEAN_MOTION_DOT":"0.00013942","ELEMENT_SET_NO":"999","NORAD_CAT_ID":"46681","CLASSIFICATION_TYPE":"U","PERIAPSIS":"546.258","SITE":"AFETR","MEAN_MOTION_DDOT":"0.0000000000000","PERIOD":"95.591","LAUNCH_DATE":"2020-10-18","MEAN_ELEMENT_THEORY":"SGP4"},{"TIME_SYSTEM":"UTC","CENTER_NAME":"EARTH","TLE_LINE1":"1 46682U 20073N   23131.49286514  .00028211  00000-0  19035-2 0  9991","OBJECT_NAME":"STARLINK-1776","ARG_OF_PERICENTER":"95.3897","REV_AT_EPOCH":"14119","OBJECT_ID":"2020-073N","ECCENTRICITY":"0.00010780","INCLINATION":"53.0519","COUNTRY_CODE":"US","OBJECT_TYPE":"PAYLOAD","RA_OF_ASC_NODE":"214.8165","SEMIMAJOR_AXIS":"6925.245","EPHEMERIS_TYPE":"0","RCS_SIZE":"LARGE","MEAN_ANOMALY":"264.7215","DECAY_DATE":null,"FILE":"3905576","GP_ID":"231632949","TLE_LINE2":"2 46682  53.0519 214.8165 0001078  95.3897 264.7215 15.06433791141197","MEAN_MOTION":"15.06433791","APOAPSIS":"547.857","REF_FRAME":"TEME","MEAN_MOTION_DOT":"0.00028211","BSTAR":"0.00190350000000","EPOCH":"2023-05-11T11:49:43.548096","NORAD_CAT_ID":"46682","ELEMENT_SET_NO":"999","MEAN_ELEMENT_THEORY":"SGP4","PERIOD":"95.590","LAUNCH_DATE":"2020-10-18","MEAN_MOTION_DDOT":"0.0000000000000","PERIAPSIS":"546.363","SITE":"AFETR","CLASSIFICATION_TYPE":"U"},{"MEAN_ELEMENT_THEORY":"SGP4","LAUNCH_DATE":"2020-10-18","PERIOD":"95.590","MEAN_MOTION_DDOT":"0.0000000000000","SITE":"AFETR","PERIAPSIS":"546.264","CLASSIFICATION_TYPE":"U","NORAD_CAT_ID":"46684","ELEMENT_SET_NO":"999","MEAN_MOTION_DOT":"0.00022678","BSTAR":"0.00153530000000","EPOCH":"2023-05-11T09:57:36.096768","TLE_LINE2":"2 46684  53.0534 200.1680 0001250  97.2278 262.8853 15.06427507141399","MEAN_MOTION":"15.06427507","APOAPSIS":"547.995","REF_FRAME":"TEME","INCLINATION":"53.0534","COUNTRY_CODE":"US","OBJECT_TYPE":"PAYLOAD","EPHEMERIS_TYPE":"0","RA_OF_ASC_NODE":"200.1680","SEMIMAJOR_AXIS":"6925.264","RCS_SIZE":"LARGE","MEAN_ANOMALY":"262.8853","DECAY_DATE":null,"FILE":"3905210","GP_ID":"231599890","REV_AT_EPOCH":"14139","OBJECT_ID":"2020-073Q","ECCENTRICITY":"0.00012500","TLE_LINE1":"1 46684U 20073Q   23131.41500112  .00022678  00000-0  15353-2 0  9998","OBJECT_NAME":"STARLINK-1780","ARG_OF_PERICENTER":"97.2278","TIME_SYSTEM":"UTC","CENTER_NAME":"EARTH"},{"MEAN_MOTION":"15.06421569","TLE_LINE2":"2 46685  53.0520 214.6169 0001472  70.4739 289.6409 15.06421569141192","APOAPSIS":"548.167","REF_FRAME":"TEME","MEAN_MOTION_DOT":"0.00027311","BSTAR":"0.00184420000000","EPOCH":"2023-05-11T12:52:03.429984","NORAD_CAT_ID":"46685","ELEMENT_SET_NO":"999","LAUNCH_DATE":"2020-10-18","PERIOD":"95.591","MEAN_ELEMENT_THEORY":"SGP4","CLASSIFICATION_TYPE":"U","MEAN_MOTION_DDOT":"0.0000000000000","SITE":"AFETR","PERIAPSIS":"546.128","TIME_SYSTEM":"UTC","CENTER_NAME":"EARTH","TLE_LINE1":"1 46685U 20073R   23131.53615081  .00027311  00000-0  18442-2 0  9995","ARG_OF_PERICENTER":"70.4739","OBJECT_NAME":"STARLINK-1781","OBJECT_ID":"2020-073R","ECCENTRICITY":"0.00014720","REV_AT_EPOCH":"14119","OBJECT_TYPE":"PAYLOAD","SEMIMAJOR_AXIS":"6925.282","RA_OF_ASC_NODE":"214.6169","EPHEMERIS_TYPE":"0","INCLINATION":"53.0520","COUNTRY_CODE":"US","FILE":"3905576","GP_ID":"231633951","RCS_SIZE":"LARGE","DECAY_DATE":null,"MEAN_ANOMALY":"289.6409"}];
